NORAD_CAT_ID,OBJECT_NAME,OBJECT_TYPE,EPOCH,MEAN_MOTION,ECCENTRICITY,INCLINATION,RA_OF_ASC_NODE,ARG_OF_PERICENTER,MEAN_ANOMALY,BSTAR,MEAN_MOTION_DOT,MEAN_MOTION_DDOT,TLE_LINE0,TLE_LINE1,TLE_LINE2,SEMIMAJOR_AXIS,PERIOD,APOGEE,PERIGEE,DECAYED
54066.0,STARLINK-5151,PAYLOAD,2022-12-10 14:00:01,15.08830852,0.0001686999999999,53.2166,264.157,63.1176,335.3542,-4.2085e-05,-9.58e-06,0.0,0 STARLINK-5151,1 54066U 22136R   22344.58334491 -.00000958  00000-0 -42085-4 0  9994,2 54066  53.2166 264.1570 0001687  63.1176 335.3542 15.08830852  1306,6917.908,95.438,540.94,538.606,0.0
54066.0,STARLINK-5151,PAYLOAD,2022-12-11 00:00:00,15.08849009,0.0001798,53.2167,262.2876,60.7079,82.2521,-0.0002981,-5.031e-05,0.0,0 STARLINK-5151,1 54066U 22136R   22345.00001157 -.00005031  00000-0 -29810-3 0  9999,2 54066  53.2167 262.2876 0001798  60.7079  82.2521 15.08849009  1302,6917.853,95.437,540.962,538.474,0.0
54066.0,STARLINK-5151,PAYLOAD,2022-12-11 08:00:01,15.08865532,0.0001807,53.2161,260.7912,55.1654,99.4519,-0.0022985,-0.00036709,0.0,0 STARLINK-5151,1 54066U 22136R   22345.33335648 -.00036709  00000-0 -22985-2 0  9991,2 54066  53.2161 260.7912 0001807  55.1654  99.4519 15.08865532  8536,6917.802,95.436,540.9169999999998,538.4169999999998,0.0
54066.0,STARLINK-5151,PAYLOAD,2022-12-11 14:00:01,15.08825572,0.0001657,53.2165,259.6679,61.03,12.2426,0.0017547,0.00027737,0.0,0 STARLINK-5151,1 54066U 22136R   22345.58334491  .00027737  00000-0  17547-2 0  9990,2 54066  53.2165 259.6679 0001657  61.0300  12.2426 15.08825572  1302,6917.924,95.438,540.936,538.643,0.0
54066.0,STARLINK-5151,PAYLOAD,2022-12-11 22:00:01,15.08850933,0.0001837,53.2167,258.1725,61.8178,23.1114,-0.0014995999999999,-0.00024082,0.0,0 STARLINK-5151,1 54066U 22136R   22345.91668981 -.00024082  00000-0 -14996-2 0  9998,2 54066  53.2167 258.1725 0001837  61.8178  23.1114 15.08850933  8627,6917.847,95.437,540.9830000000002,538.441,0.0
54066.0,STARLINK-5151,PAYLOAD,2022-12-12 14:00:01,15.08815624,0.000169,53.2165,255.1788,61.2683,46.8013,0.0022514,0.00035701,0.0,0 STARLINK-5151,1 54066U 22136R   22346.58334491  .00035701  00000-0  22514-2 0  9991,2 54066  53.2165 255.1788 0001690  61.2683  46.8013 15.08815624  1309,6917.955,95.439,540.989,538.651,0.0
54066.0,STARLINK-5151,PAYLOAD,2022-12-12 16:00:01,15.08828214,0.0001699,53.2164,254.8049,62.0761,138.9521,0.0011493,0.00018045,0.0,0 STARLINK-5151,1 54066U 22136R   22346.66668981  .00018045  00000-0  11493-2 0  9990,2 54066  53.2164 254.8049 0001699  62.0761 138.9521 15.08828214  8739,6917.916,95.438,540.957,538.606,0.0
54066.0,STARLINK-5151,PAYLOAD,2022-12-12 18:17:34,15.08844146,0.0001939,53.2166,254.3781,51.8478,308.2689,2.648e-05,1.33e-06,0.0,0 STARLINK-5151,1 54066U 22136R   22346.76220415  .00000133  00000-0  26480-4 0  9990,2 54066  53.2166 254.3781 0001939  51.8478 308.2689 15.08844146  8264,6917.868,95.437,541.0740000000002,538.391,0.0
54066.0,STARLINK-5151,PAYLOAD,2022-12-13 03:49:53,15.08840929,0.000173,53.2173,252.5941,57.6794,302.4366,5.2218e-06,-2.05e-06,0.0,0 STARLINK-5151,1 54066U 22136R   22347.15964649 -.00000205  00000-0  52218-5 0  9998,2 54066  53.2173 252.5941 0001730  57.6794 302.4366 15.08840929  8807,6917.878000000002,95.437,540.939,538.5459999999998,0.0
54066.0,STARLINK-5151,PAYLOAD,2022-12-13 19:43:44,15.08839138,0.0001724,53.2183,249.6183,50.9315,309.183,-3.6044e-05,-8.62e-06,0.0,0 STARLINK-5151,1 54066U 22136R   22347.82204714 -.00000862  00000-0 -36044-4 0  9990,2 54066  53.2183 249.6183 0001724  50.9315 309.1830 15.08839138  8429,6917.8830000000025,95.438,540.941,538.555,0.0
54066.0,STARLINK-5151,PAYLOAD,2022-12-14 10:02:13,15.08829825,0.0001659,53.2175,246.9426,60.2273,299.8884,-1.0079e-05,-4.48e-06,0.0,0 STARLINK-5151,1 54066U 22136R   22348.41821468 -.00000448  00000-0 -10079-4 0  9997,2 54066  53.2175 246.9426 0001659  60.2273 299.8884 15.08829825  8992,6917.911,95.438,540.924,538.629,0.0
54066.0,STARLINK-5151,PAYLOAD,2022-12-14 19:34:32,15.08833177,0.0001861,53.2174,245.1579,58.6354,301.482,1.9587e-05,2.4e-07,0.0,0 STARLINK-5151,1 54066U 22136R   22348.81565455  .00000024  00000-0  19587-4 0  9993,2 54066  53.2174 245.1579 0001861  58.6354 301.4820 15.08833177  8576,6917.901,95.438,541.054,538.479,0.0
54066.0,STARLINK-5151,PAYLOAD,2022-12-15 03:31:27,15.08842382,0.0001679,53.2173,243.6717,60.1666,299.9493,0.00011186,1.493e-05,0.0,0 STARLINK-5151,1 54066U 22136R   22349.14684775  .00001493  00000-0  11186-3 0  9994,2 54066  53.2173 243.6717 0001679  60.1666 299.9493 15.08842382  9108,6917.873000000001,95.437,540.9,538.577,0.0
54066.0,STARLINK-5151,PAYLOAD,2022-12-15 09:53:00,15.0884159,0.0001688,53.2162,242.4823,59.8013,300.3146,0.00014449,2.012e-05,0.0,0 STARLINK-5151,1 54066U 22136R   22349.41180876  .00002012  00000-0  14449-3 0  9990,2 54066  53.2162 242.4823 0001688  59.8013 300.3146 15.08841590  8664,6917.876,95.437,540.908,538.573,0.0
54066.0,STARLINK-5151,PAYLOAD,2022-12-15 17:49:55,15.0884204,0.0001715,53.2166,240.9954,53.3002,306.8148,0.00014266,1.983e-05,0.0,0 STARLINK-5151,1 54066U 22136R   22349.74300923  .00001983  00000-0  14266-3 0  9996,2 54066  53.2166 240.9954 0001715  53.3002 306.8148 15.08842040  8714,6917.874,95.437,540.9259999999998,538.553,0.0
54066.0,STARLINK-5151,PAYLOAD,2022-12-16 09:43:46,15.0885396,0.0001737,53.2151,238.0222,56.12,303.9957,0.0003283,4.943e-05,0.0,0 STARLINK-5151,1 54066U 22136R   22350.40540352  .00004943  00000-0  32830-3 0  9999,2 54066  53.2151 238.0222 0001737  56.1200 303.9957 15.08853960  9292,6917.8380000000025,95.437,540.904,538.501,0.0
54066.0,STARLINK-5151,PAYLOAD,2022-12-16 20:51:29,15.08838342,0.000154,53.2158,235.9403,58.1101,302.0041,-0.00011838,-2.171e-05,0.0,0 STARLINK-5151,1 54066U 22136R   22350.86908589 -.00002171  00000-0 -11838-3 0  9997,2 54066  53.2158 235.9403 0001540  58.1101 302.0041 15.08838342  9369,6917.885,95.438,540.816,538.685,0.0
54066.0,STARLINK-5151,PAYLOAD,2022-12-17 03:13:02,15.08828161,0.0001667,53.2166,234.7511,56.2142,303.9008,-0.0001796,-3.144e-05,0.0,0 STARLINK-5151,1 54066U 22136R   22351.13405472 -.00003144  00000-0 -17960-3 0  9994,2 54066  53.2166 234.7511 0001667  56.2142 303.9008 15.08828161  9405,6917.917,95.438,540.935,538.628,0.0
54066.0,STARLINK-5151,PAYLOAD,2022-12-17 09:34:35,15.08832542,0.0001561999999999,53.2174,233.5615,53.1298,306.9837,-2.9186000000000007e-06,-3.34e-06,0.0,0 STARLINK-5151,1 54066U 22136R   22351.39901862 -.00000334  00000-0 -29186-5 0  9999,2 54066  53.2174 233.5615 0001562  53.1298 306.9837 15.08832542  8969,6917.903,95.438,540.849,538.688,0.0
54066.0,STARLINK-5151,PAYLOAD,2022-12-17 20:42:16,15.08832065,0.0001416,53.2173,231.4803,53.3789,306.7334,0.00011205,1.495e-05,0.0,0 STARLINK-5151,1 54066U 22136R   22351.86269633  .00001495  00000-0  11205-3 0  9992,2 54066  53.2173 231.4803 0001416  53.3789 306.7334 15.08832065  9038,6917.905,95.438,540.749,538.79,0.0
54066.0,STARLINK-5151,PAYLOAD,2022-12-18 01:28:25,15.08845754,0.0001601,53.2171,230.5878,57.7763,302.3384,3.5476e-05,2.77e-06,0.0,0 STARLINK-5151,1 54066U 22136R   22352.06140982  .00000277  00000-0  35476-4 0  9994,2 54066  53.2171 230.5878 0001601  57.7763 302.3384 15.08845754  9546,6917.863,95.437,540.835,538.62,0.0
54066.0,STARLINK-5151,PAYLOAD,2022-12-18 09:25:21,15.08843483,0.0001667,53.2172,229.1006,57.3016,302.8137,2.4996e-07,-2.84e-06,0.0,0 STARLINK-5151,1 54066U 22136R   22352.39261226 -.00000284  00000-0  24996-6 0  9991,2 54066  53.2172 229.1006 0001667  57.3016 302.8137 15.08843483  9114,6917.87,95.437,540.888,538.582,0.0
54066.0,STARLINK-5151,PAYLOAD,2022-12-18 22:08:27,15.08836535,0.0001594,53.217,226.7219,58.5947,301.5201,8.5591e-05,1.074e-05,0.0,0 STARLINK-5151,1 54066U 22136R   22352.92253561  .00001074  00000-0  85591-4 0  9996,2 54066  53.2170 226.7219 0001594  58.5947 301.5201 15.08836535  9192,6917.891,95.438,540.859,538.653,0.0
54066.0,STARLINK-5151,PAYLOAD,2022-12-19 01:19:13,15.08837499,0.0001678,53.217,226.1274,59.624,300.4918,0.00019323,2.788e-05,0.0,0 STARLINK-5151,1 54066U 22136R   22353.05501399  .00002788  00000-0  19323-3 0  9998,2 54066  53.2170 226.1274 0001678  59.6240 300.4918 15.08837499  9696,6917.888000000001,95.438,540.914,538.592,0.0
54066.0,STARLINK-5151,PAYLOAD,2022-12-20 01:09:59,15.08848061,0.0001692,53.2164,221.6665,61.3763,298.7399,0.00014719,2.056e-05,0.0,0 STARLINK-5151,1 54066U 22136R   22354.04861011  .00002056  00000-0  14719-3 0  9990,2 54066  53.2164 221.6665 0001692  61.3763 298.7399 15.08848061  9362,6917.856,95.437,540.891,538.55,0.0
54066.0,STARLINK-5151,PAYLOAD,2022-12-20 20:14:37,15.0884639,0.0001416,53.2161,218.0977,66.6568,293.4573,0.0001052,1.387e-05,0.0,0 STARLINK-5151,1 54066U 22136R   22354.84348565  .00001387  00000-0  10520-3 0  9994,2 54066  53.2161 218.0977 0001416  66.6568 293.4573 15.08846390  9965,6917.861,95.437,540.705,538.746,0.0
54066.0,STARLINK-5151,PAYLOAD,2022-12-21 01:00:47,15.0883461,0.0001651,53.2161,217.2065,58.8363,301.279,-0.00012411,-2.262e-05,0.0,0 STARLINK-5151,1 54066U 22136R   22355.04221145 -.00002262  00000-0 -12411-3 0  9997,2 54066  53.2161 217.2065 0001651  58.8363 301.2790 15.08834610  9995,6917.897,95.438,540.904,538.62,0.0
54066.0,STARLINK-5151,PAYLOAD,2022-12-22 00:51:35,15.08826032,0.000159,53.2169,212.7455,57.394,302.7206,-9.7193e-05,-1.834e-05,0.0,0 STARLINK-5151,1 54066U 22136R   22356.03582719 -.00001834  00000-0 -97193-4 0  9999,2 54066  53.2169 212.7455 0001590  57.3940 302.7206 15.08826032 10149,6917.9230000000025,95.438,540.888,538.688,0.0
54066.0,STARLINK-5151,PAYLOAD,2022-12-22 07:13:07,15.08830028,0.0001624,53.217,211.5566,57.1747,302.9401,-6.6995e-05,-1.354e-05,0.0,0 STARLINK-5151,1 54066U 22136R   22356.30078605 -.00001354  00000-0 -66995-4 0  9996,2 54066  53.2170 211.5566 0001624  57.1747 302.9401 15.08830028  9701,6917.911,95.438,540.899,538.6519999999998,0.0
